BEIDOU 21               
1 41315U 16006A   22259.58777440 -.00000020  00000+0  00000+0 0  9990
2 41315  55.6253 109.1575 0003060 253.1947 323.3438  1.86231602 45082